NORAD_CAT_ID,OBJECT_NAME,OBJECT_TYPE,EPOCH,MEAN_MOTION,ECCENTRICITY,INCLINATION,RA_OF_ASC_NODE,ARG_OF_PERICENTER,MEAN_ANOMALY,BSTAR,MEAN_MOTION_DOT,MEAN_MOTION_DDOT,TLE_LINE0,TLE_LINE1,TLE_LINE2,SEMIMAJOR_AXIS,PERIOD,APOGEE,PERIGEE,DECAYED
55632.0,STARLINK-5546,PAYLOAD,2023-04-22 01:21:04,14.98342633,0.000298,69.9999,338.5282,269.5729,90.5089,5.9832e-05,6.21e-06,0.0,0 STARLINK-5546,1 55632U 23021E   23112.05630199  .00000621  00000-0  59832-4 0  9991,2 55632  69.9999 338.5282 0002980 269.5729  90.5089 14.98342633 10627,6950.154,96.106,574.09,569.948,0.0
55632.0,STARLINK-5546,PAYLOAD,2023-04-22 20:34:42,14.98303968,0.0002916,70.0004,336.5085,270.7022,89.3803,0.00040054,4.686e-05,0.0,0 STARLINK-5546,1 55632U 23021E   23112.85743529  .00004686  00000-0  40054-3 0  9991,2 55632  70.0004 336.5085 0002916 270.7022  89.3803 14.98303968 10443,6950.273,96.109,574.165,570.112,0.0
55632.0,STARLINK-5546,PAYLOAD,2023-04-23 14:12:10,14.98333295,0.0002679,70.0004,334.6566,269.7469,90.3383,-7.4179e-05,-9.78e-06,0.0,0 STARLINK-5546,1 55632U 23021E   23113.59179063 -.00000978  00000-0 -74179-4 0  9997,2 55632  70.0004 334.6566 0002679 269.7469  90.3383 14.98333295 10851,6950.183,96.107,573.91,570.186,0.0
55632.0,STARLINK-5546,PAYLOAD,2023-04-24 14:14:10,14.98339682,0.0002923,70.0,332.1332,271.4244,88.658,0.00010419,1.151e-05,0.0,0 STARLINK-5546,1 55632U 23021E   23114.59317728  .00001151  00000-0  10419-3 0  9998,2 55632  70.0000 332.1332 0002923 271.4244  88.6580 14.98339682 11007,6950.163,96.106,574.059,569.996,0.0
55632.0,STARLINK-5546,PAYLOAD,2023-04-25 14:16:13,14.98310727,0.0002533,70.0001,329.6082,261.4619,98.6253,-0.00020915,-2.586e-05,0.0,0 STARLINK-5546,1 55632U 23021E   23115.59460346 -.00002586  00000-0 -20915-3 0  9991,2 55632  70.0001 329.6082 0002533 261.4619  98.6253 14.98310727 11156,6950.252,96.108,573.878,570.357,0.0
55632.0,STARLINK-5546,PAYLOAD,2023-04-26 14:18:14,14.98329945,0.0002695,70.0025,327.0848,263.7547,96.3305,-9.3594e-05,-1.209e-05,0.0,0 STARLINK-5546,1 55632U 23021E   23116.59600108 -.00001209  00000-0 -93594-4 0  9999,2 55632  70.0025 327.0848 0002695 263.7547  96.3305 14.98329945 11300,6950.193,96.107,573.931,570.185,0.0
55632.0,STARLINK-5546,PAYLOAD,2023-04-27 14:20:17,14.98213796,0.0004395,70.0125,324.5654,287.4301,72.6377,0.001798,0.00021364,0.0,0 STARLINK-5546,1 55632U 23021E   23117.59742035  .00021364  00000-0  17980-2 0  9991,2 55632  70.0125 324.5654 0004395 287.4301  72.6377 14.98213796 11456,6950.552,96.114,575.472,569.362,0.0
55632.0,STARLINK-5546,PAYLOAD,2023-04-27 20:44:46,14.98420108,0.0002143,70.0089,323.8898,218.2436,141.8571,-0.0015575,-0.0001867,0.0,0 STARLINK-5546,1 55632U 23021E   23117.86443073 -.00018670  00000-0 -15575-2 0  9997,2 55632  70.0089 323.8898 0002143 218.2436 141.8571 14.98420108 11190,6949.914,96.101,573.269,570.29,0.0
55632.0,STARLINK-5546,PAYLOAD,2023-04-27 23:57:03,14.98328003,0.0003647,69.9996,323.5468,273.5956,86.4786,0.00031112,3.621e-05,0.0,0 STARLINK-5546,1 55632U 23021E   23117.99796120  .00003621  00000-0  31112-3 0  9999,2 55632  69.9996 323.5468 0003647 273.5956  86.4786 14.98328003 11211,6950.199,96.107,574.599,569.529,0.0
55632.0,STARLINK-5546,PAYLOAD,2023-04-28 12:46:07,14.98362749,0.0003318,69.9988,322.2002,273.8986,86.1794,-0.0001137,-1.451e-05,0.0,0 STARLINK-5546,1 55632U 23021E   23118.53203329 -.00001451  00000-0 -11370-3 0  9999,2 55632  69.9988 322.2002 0003318 273.8986  86.1794 14.98362749 11292,6950.092,96.105,574.263,569.651,0.0
55632.0,STARLINK-5546,PAYLOAD,2023-04-29 12:48:08,14.98345389,0.0002862,70.0005,319.676,273.2788,86.8044,-4.1248e-05,-5.85e-06,0.0,0 STARLINK-5546,1 55632U 23021E   23119.53343171 -.00000585  00000-0 -41248-4 0  9995,2 55632  70.0005 319.6760 0002862 273.2788  86.8044 14.98345389 11749,6950.145,96.106,573.999,570.021,0.0
55632.0,STARLINK-5546,PAYLOAD,2023-04-29 19:12:40,14.98339706,0.0003055,69.9995,319.002,273.9423,86.1387,-8.1894e-05,-1.07e-05,0.0,0 STARLINK-5546,1 55632U 23021E   23119.80047360 -.00001070  00000-0 -81894-4 0  9997,2 55632  69.9995 319.0020 0003055 273.9423  86.1387 14.98339706 11485,6950.163,96.106,574.151,569.905,0.0
55632.0,STARLINK-5546,PAYLOAD,2023-04-29 22:24:56,14.98340816,0.0003085,69.9991,318.6649,271.5568,88.5237,-6.4642e-05,-8.64e-06,0.0,0 STARLINK-5546,1 55632U 23021E   23119.93399099 -.00000864  00000-0 -64642-4 0  9992,2 55632  69.9991 318.6649 0003085 271.5568  88.5237 14.98340816 11800,6950.159,96.106,574.169,569.88,0.0
55632.0,STARLINK-5546,PAYLOAD,2023-04-30 20:50:49,14.98339602,0.0003094,69.9993,316.3085,272.6596,87.4209,-0.00017648,-2.199e-05,0.0,0 STARLINK-5546,1 55632U 23021E   23120.86862783 -.00002199  00000-0 -17648-3 0  9997,2 55632  69.9993 316.3085 0003094 272.6596  87.4209 14.98339602 11644,6950.163,96.106,574.179,569.878,0.0
55632.0,STARLINK-5546,PAYLOAD,2023-05-01 12:52:09,14.98329878,0.000304,69.9992,314.6247,271.6119,88.4691,6.8405e-06,-1.1e-07,0.0,0 STARLINK-5546,1 55632U 23021E   23121.53622590 -.00000011  00000-0  68405-5 0  9991,2 55632  69.9992 314.6247 0003040 271.6119  88.4691 14.98329878 12040,6950.193,96.107,574.171,569.945,0.0
55632.0,STARLINK-5546,PAYLOAD,2023-05-01 20:52:50,14.9833036,0.0003081,69.9992,313.783,270.9118,89.1688,-1.1301e-05,-2.28e-06,0.0,0 STARLINK-5546,1 55632U 23021E   23121.87002586 -.00000228  00000-0 -11301-4 0  9998,2 55632  69.9992 313.7830 0003081 270.9118  89.1688 14.98330360 12091,6950.192,96.107,574.198,569.915,0.0
55632.0,STARLINK-5546,PAYLOAD,2023-05-01 22:28:58,14.98330803,0.0003082,69.9993,313.6146,271.0364,89.0442,-6.4338e-06,-1.7e-06,0.0,0 STARLINK-5546,1 55632U 23021E   23121.93678541 -.00000170  00000-0 -64338-5 0  9990,2 55632  69.9993 313.6146 0003082 271.0364  89.0442 14.98330803 11804,6950.19,96.107,574.197,569.913,0.0
55632.0,STARLINK-5546,PAYLOAD,2023-05-02 00:05:07,14.98288053,0.0002667,69.9993,313.446,269.457,90.6283,0.00074491,8.797e-05,0.0,0 STARLINK-5546,1 55632U 23021E   23122.00355719  .00008797  00000-0  74491-3 0  9998,2 55632  69.9993 313.4460 0002667 269.4570  90.6283 14.98288053 11810,6950.323,96.11,574.041,570.334,0.0
55632.0,STARLINK-5546,PAYLOAD,2023-05-02 12:54:10,14.98324976,0.0003078,69.9997,312.0992,271.6104,88.4703,0.00010557,1.167e-05,0.0,0 STARLINK-5546,1 55632U 23021E   23122.53762472  .00001167  00000-0  10557-3 0  9991,2 55632  69.9997 312.0992 0003078 271.6104  88.4703 14.98324976 11899,6950.208,96.107,574.213,569.934,0.0
55632.0,STARLINK-5546,PAYLOAD,2023-05-02 20:54:51,14.98327597,0.000299,69.9995,311.2577,268.2639,91.8177,6.6973e-05,7.06e-06,0.0,0 STARLINK-5546,1 55632U 23021E   23122.87142477  .00000706  00000-0  66973-4 0  9997,2 55632  69.9995 311.2577 0002990 268.2639  91.8177 14.98327597 12249,6950.2,96.107,574.143,569.987,0.0
55632.0,STARLINK-5546,PAYLOAD,2023-05-03 12:56:11,14.98329062,0.0003033,69.9995,309.5743,270.3079,89.7732,9.9377e-06,2.6e-07,0.0,0 STARLINK-5546,1 55632U 23021E   23123.53902531  .00000026  00000-0  99377-5 0  9996,2 55632  69.9995 309.5743 0003033 270.3079  89.7732 14.98329062 12045,6950.196,96.107,574.169,569.953,0.0
55632.0,STARLINK-5546,PAYLOAD,2023-05-03 20:56:52,14.98327646,0.0003079,69.9994,308.7327,270.4329,89.6477,-9.0861e-06,-2.01e-06,0.0,0 STARLINK-5546,1 55632U 23021E   23123.87282694 -.00000201  00000-0 -90861-5 0  9990,2 55632  69.9994 308.7327 0003079 270.4329  89.6477 14.98327646 12391,6950.2,96.107,574.205,569.925,0.0
55632.0,STARLINK-5546,PAYLOAD,2023-05-04 12:58:12,14.98330559,0.0003139,69.9992,307.0503,271.1652,88.9147,-6.4023e-07,-1.01e-06,0.0,0 STARLINK-5546,1 55632U 23021E   23124.54042521 -.00000101  00000-0 -64023-6 0  9999,2 55632  69.9992 307.0503 0003139 271.1652  88.9147 14.98330559 12192,6950.191,96.107,574.238,569.874,0.0
55632.0,STARLINK-5546,PAYLOAD,2023-05-04 20:58:52,14.98331607,0.0003118,69.9993,306.2087,271.3459,88.7343,1.4374e-05,7.8e-07,0.0,0 STARLINK-5546,1 55632U 23021E   23124.87422397  .00000078  00000-0  14374-4 0  9991,2 55632  69.9993 306.2087 0003118 271.3459  88.7343 14.98331607 12545,6950.188,96.107,574.22,569.886,0.0
55632.0,STARLINK-5546,PAYLOAD,2023-05-05 16:12:29,14.98329629,0.0003116,69.9993,304.1885,269.4304,90.6498,3.3134e-05,3.02e-06,0.0,0 STARLINK-5546,1 55632U 23021E   23125.67534385  .00000302  00000-0  33134-4 0  9996,2 55632  69.9993 304.1885 0003116 269.4304  90.6498 14.98329629 12367,6950.194,96.107,574.225,569.893,0.0
55632.0,STARLINK-5546,PAYLOAD,2023-05-05 21:00:53,14.9833076,0.0003119,69.9993,303.6836,268.4231,91.6571,4.2116e-05,4.1e-06,0.0,0 STARLINK-5546,1 55632U 23021E   23125.87562273  .00000410  00000-0  42116-4 0  9995,2 55632  69.9993 303.6836 0003119 268.4231  91.6571 14.98330760 12695,6950.191,96.107,574.223,569.888,0.0
55632.0,STARLINK-5546,PAYLOAD,2023-05-06 13:02:14,14.98328955,0.0003125,69.9994,302.0009,270.3449,89.7352,-1.0795e-05,-2.22e-06,0.0,0 STARLINK-5546,1 55632U 23021E   23126.54322563 -.00000222  00000-0 -10795-4 0  9997,2 55632  69.9994 302.0009 0003125 270.3449  89.7352 14.98328955 12790,6950.196,96.107,574.233,569.889,0.0
55632.0,STARLINK-5546,PAYLOAD,2023-05-06 21:02:54,14.98332226,0.0003115,69.9992,301.1589,270.4402,89.64,1.3623e-05,7e-07,0.0,0 STARLINK-5546,1 55632U 23021E   23126.87702262  .00000070  00000-0  13623-4 0  9993,2 55632  69.9992 301.1589 0003115 270.4402  89.6400 14.98332226 12542,6950.186,96.107,574.216,569.886,0.0
55632.0,STARLINK-5546,PAYLOAD,2023-05-07 13:04:15,14.98327836,0.0003127,69.9991,299.4758,271.2189,88.8611,-3.4822e-05,-5.08e-06,0.0,0 STARLINK-5546,1 55632U 23021E   23127.54462643 -.00000508  00000-0 -34822-4 0  9996,2 55632  69.9991 299.4758 0003127 271.2189  88.8611 14.98327836 12942,6950.2,96.107,574.238,569.891,0.0
55632.0,STARLINK-5546,PAYLOAD,2023-05-07 21:04:55,14.98329468,0.0003144,69.9991,298.634,270.8884,89.1915,-1.9407e-05,-3.25e-06,0.0,0 STARLINK-5546,1 55632U 23021E   23127.87842503 -.00000325  00000-0 -19407-4 0  9998,2 55632  69.9991 298.6340 0003144 270.8884  89.1915 14.98329468 12692,6950.195,96.107,574.245,569.874,0.0
